[{"OBJECT_NAME":"ONEWEB-0315","OBJECT_ID":"2021-075AC","EPOCH":"2026-04-12T06:19:13.903968","MEAN_MOTION":13.12441229,"ECCENTRICITY":0.0001513,"INCLINATION":87.9012,"RA_OF_ASC_NODE":3.7378,"ARG_OF_PERICENTER":88.6487,"MEAN_ANOMALY":271.4815,"EPHEMERIS_TYPE":0,"CLASSIFICATION_TYPE":"U","NORAD_CAT_ID":49101,"ELEMENT_SET_NO":999,"REV_AT_EPOCH":22652,"BSTAR":0.0010909000000000001,"MEAN_MOTION_DOT":4.05e-06,"MEAN_MOTION_DDOT":0.0},{"OBJECT_NAME":"ONEWEB-0316","OBJECT_ID":"2021-075AD","EPOCH":"2026-04-11T22:02:53.886336","MEAN_MOTION":13.1868464,"ECCENTRICITY":0.0001725,"INCLINATION":87.9222,"RA_OF_ASC_NODE":348.6365,"ARG_OF_PERICENTER":82.4577,"MEAN_ANOMALY":277.6751,"EPHEMERIS_TYPE":0,"CLASSIFICATION_TYPE":"U","NORAD_CAT_ID":49102,"ELEMENT_SET_NO":999,"REV_AT_EPOCH":22847,"BSTAR":0.00012347,"MEAN_MOTION_DOT":6.2e-07,"MEAN_MOTION_DDOT":0.0},{"OBJECT_NAME":"ONEWEB-0317","OBJECT_ID":"2021-075AE","EPOCH":"2026-04-12T06:24:06.402528","MEAN_MOTION":13.1244073,"ECCENTRICITY":0.0002334,"INCLINATION":87.9014,"RA_OF_ASC_NODE":3.7598,"ARG_OF_PERICENTER":64.9719,"MEAN_ANOMALY":295.1652,"EPHEMERIS_TYPE":0,"CLASSIFICATION_TYPE":"U","NORAD_CAT_ID":49103,"ELEMENT_SET_NO":999,"REV_AT_EPOCH":22654,"BSTAR":0.00067362,"MEAN_MOTION_DOT":2.55e-06,"MEAN_MOTION_DDOT":0.0},{"OBJECT_NAME":"ONEWEB-0318","OBJECT_ID":"2021-075AF","EPOCH":"2026-04-11T21:58:08.747328","MEAN_MOTION":13.18684411,"ECCENTRICITY":0.0001572,"INCLINATION":87.923,"RA_OF_ASC_NODE":348.6327,"ARG_OF_PERICENTER":86.6515,"MEAN_ANOMALY":273.4797,"EPHEMERIS_TYPE":0,"CLASSIFICATION_TYPE":"U","NORAD_CAT_ID":49104,"ELEMENT_SET_NO":999,"REV_AT_EPOCH":22843,"BSTAR":6.6175e-05,"MEAN_MOTION_DOT":3.9e-07,"MEAN_MOTION_DDOT":0.0},{"OBJECT_NAME":"ONEWEB-0319","OBJECT_ID":"2021-075AG","EPOCH":"2026-04-12T06:15:32.849568","MEAN_MOTION":13.17646968,"ECCENTRICITY":0.0001543,"INCLINATION":87.9184,"RA_OF_ASC_NODE":18.9632,"ARG_OF_PERICENTER":94.9926,"MEAN_ANOMALY":265.1382,"EPHEMERIS_TYPE":0,"CLASSIFICATION_TYPE":"U","NORAD_CAT_ID":49105,"ELEMENT_SET_NO":999,"REV_AT_EPOCH":22492,"BSTAR":0.0001402,"MEAN_MOTION_DOT":6.7e-07,"MEAN_MOTION_DDOT":0.0},{"OBJECT_NAME":"ONEWEB-0323","OBJECT_ID":"2021-075AH","EPOCH":"2026-04-12T04:07:30.372384","MEAN_MOTION":13.12442914,"ECCENTRICITY":0.0001303,"INCLINATION":87.9012,"RA_OF_ASC_NODE":3.7602,"ARG_OF_PERICENTER":92.6453,"MEAN_ANOMALY":267.4825,"EPHEMERIS_TYPE":0,"CLASSIFICATION_TYPE":"U","NORAD_CAT_ID":49106,"ELEMENT_SET_NO":999,"REV_AT_EPOCH":22589,"BSTAR":0.0014460999999999999,"MEAN_MOTION_DOT":5.33e-06,"MEAN_MOTION_DDOT":0.0},{"OBJECT_NAME":"ONEWEB-0329","OBJECT_ID":"2021-075AJ","EPOCH":"2026-04-12T06:27:42.585696","MEAN_MOTION":13.17651084,"ECCENTRICITY":0.0001675,"INCLINATION":87.9185,"RA_OF_ASC_NODE":18.9622,"ARG_OF_PERICENTER":76.7142,"MEAN_ANOMALY":283.4177,"EPHEMERIS_TYPE":0,"CLASSIFICATION_TYPE":"U","NORAD_CAT_ID":49107,"ELEMENT_SET_NO":999,"REV_AT_EPOCH":22490,"BSTAR":0.00011666999999999999,"MEAN_MOTION_DOT":5.8e-07,"MEAN_MOTION_DDOT":0.0},{"OBJECT_NAME":"ONEWEB-0330","OBJECT_ID":"2021-075AK","EPOCH":"2026-04-12T05:12:35.768160","MEAN_MOTION":13.17648799,"ECCENTRICITY":0.0001692,"INCLINATION":87.919,"RA_OF_ASC_NODE":18.9914,"ARG_OF_PERICENTER":71.4283,"MEAN_ANOMALY":288.7032,"EPHEMERIS_TYPE":0,"CLASSIFICATION_TYPE":"U","NORAD_CAT_ID":49108,"ELEMENT_SET_NO":999,"REV_AT_EPOCH":22493,"BSTAR":0.00015612999999999998,"MEAN_MOTION_DOT":7.3e-07,"MEAN_MOTION_DDOT":0.0},{"OBJECT_NAME":"ONEWEB-0292","OBJECT_ID":"2021-083A","EPOCH":"2026-04-12T02:52:11.805312","MEAN_MOTION":13.13468918,"ECCENTRICITY":0.0001602,"INCLINATION":87.8981,"RA_OF_ASC_NODE":333.4029,"ARG_OF_PERICENTER":87.1889,"MEAN_ANOMALY":272.9424,"EPHEMERIS_TYPE":0,"CLASSIFICATION_TYPE":"U","NORAD_CAT_ID":49186,"ELEMENT_SET_NO":999,"REV_AT_EPOCH":22225,"BSTAR":-0.00065357,"MEAN_MOTION_DOT":-2.26e-06,"MEAN_MOTION_DDOT":0.0},{"OBJECT_NAME":"ONEWEB-0303","OBJECT_ID":"2021-083B","EPOCH":"2026-04-12T03:21:11.040768","MEAN_MOTION":13.18684258,"ECCENTRICITY":0.0001633,"INCLINATION":87.9225,"RA_OF_ASC_NODE":348.5905,"ARG_OF_PERICENTER":84.285,"MEAN_ANOMALY":275.8469,"EPHEMERIS_TYPE":0,"CLASSIFICATION_TYPE":"U","NORAD_CAT_ID":49187,"ELEMENT_SET_NO":999,"REV_AT_EPOCH":22127,"BSTAR":-4.404100000000001e-05,"MEAN_MOTION_DOT":-4e-08,"MEAN_MOTION_DDOT":0.0},{"OBJECT_NAME":"ONEWEB-0306","OBJECT_ID":"2021-083C","EPOCH":"2026-04-12T03:06:57.327552","MEAN_MOTION":13.18685869,"ECCENTRICITY":0.0001933,"INCLINATION":87.9229,"RA_OF_ASC_NODE":348.5765,"ARG_OF_PERICENTER":76.2289,"MEAN_ANOMALY":283.9058,"EPHEMERIS_TYPE":0,"CLASSIFICATION_TYPE":"U","NORAD_CAT_ID":49188,"ELEMENT_SET_NO":999,"REV_AT_EPOCH":22131,"BSTAR":-3.0524e-05,"MEAN_MOTION_DOT":1e-08,"MEAN_MOTION_DDOT":0.0},{"OBJECT_NAME":"ONEWEB-0307","OBJECT_ID":"2021-083D","EPOCH":"2026-04-12T02:43:38.807904","MEAN_MOTION":13.13468475,"ECCENTRICITY":0.0001602,"INCLINATION":87.8991,"RA_OF_ASC_NODE":333.3942,"ARG_OF_PERICENTER":83.6947,"MEAN_ANOMALY":276.4364,"EPHEMERIS_TYPE":0,"CLASSIFICATION_TYPE":"U","NORAD_CAT_ID":49189,"ELEMENT_SET_NO":999,"REV_AT_EPOCH":22225,"BSTAR":-0.00013606,"MEAN_MOTION_DOT":-3.7e-07,"MEAN_MOTION_DDOT":0.0},{"OBJECT_NAME":"ONEWEB-0320","OBJECT_ID":"2021-083E","EPOCH":"2026-04-12T03:35:43.878624","MEAN_MOTION":13.18867233,"ECCENTRICITY":0.0001367,"INCLINATION":87.9305,"RA_OF_ASC_NODE":348.6037,"ARG_OF_PERICENTER":52.2991,"MEAN_ANOMALY":307.8265,"EPHEMERIS_TYPE":0,"CLASSIFICATION_TYPE":"U","NORAD_CAT_ID":49190,"ELEMENT_SET_NO":999,"REV_AT_EPOCH":22127,"BSTAR":-0.06014800000000001,"MEAN_MOTION_DOT":-0.00023702,"MEAN_MOTION_DDOT":0.0},{"OBJECT_NAME":"ONEWEB-0321","OBJECT_ID":"2021-083F","EPOCH":"2026-04-12T05:12:07.697664","MEAN_MOTION":13.20773229,"ECCENTRICITY":0.0001948,"INCLINATION":87.9136,"RA_OF_ASC_NODE":287.6051,"ARG_OF_PERICENTER":84.2131,"MEAN_ANOMALY":275.9224,"EPHEMERIS_TYPE":0,"CLASSIFICATION_TYPE":"U","NORAD_CAT_ID":49191,"ELEMENT_SET_NO":999,"REV_AT_EPOCH":22812,"BSTAR":0.00025405,"MEAN_MOTION_DOT":1.16e-06,"MEAN_MOTION_DDOT":0.0},{"OBJECT_NAME":"ONEWEB-0322","OBJECT_ID":"2021-083G","EPOCH":"2026-04-12T02:37:34.476384","MEAN_MOTION":13.13468512,"ECCENTRICITY":0.0002165,"INCLINATION":87.8976,"RA_OF_ASC_NODE":333.3988,"ARG_OF_PERICENTER":80.8938,"MEAN_ANOMALY":279.2436,"EPHEMERIS_TYPE":0,"CLASSIFICATION_TYPE":"U","NORAD_CAT_ID":49192,"ELEMENT_SET_NO":999,"REV_AT_EPOCH":22224,"BSTAR":8.7618e-05,"MEAN_MOTION_DOT":4.5e-07,"MEAN_MOTION_DDOT":0.0},{"OBJECT_NAME":"ONEWEB-0324","OBJECT_ID":"2021-083H","EPOCH":"2026-04-12T02:57:25.835616","MEAN_MOTION":13.1868409,"ECCENTRICITY":0.0001736,"INCLINATION":87.9231,"RA_OF_ASC_NODE":348.5831,"ARG_OF_PERICENTER":76.3437,"MEAN_ANOMALY":283.7889,"EPHEMERIS_TYPE":0,"CLASSIFICATION_TYPE":"U","NORAD_CAT_ID":49193,"ELEMENT_SET_NO":999,"REV_AT_EPOCH":22129,"BSTAR":0.00018278,"MEAN_MOTION_DOT":8.5e-07,"MEAN_MOTION_DDOT":0.0},{"OBJECT_NAME":"ONEWEB-0325","OBJECT_ID":"2021-083J","EPOCH":"2026-04-12T03:02:11.598432","MEAN_MOTION":13.18684202,"ECCENTRICITY":0.0001807,"INCLINATION":87.9214,"RA_OF_ASC_NODE":348.5971,"ARG_OF_PERICENTER":82.1981,"MEAN_ANOMALY":277.9356,"EPHEMERIS_TYPE":0,"CLASSIFICATION_TYPE":"U","NORAD_CAT_ID":49194,"ELEMENT_SET_NO":999,"REV_AT_EPOCH":22130,"BSTAR":4.7262e-05,"MEAN_MOTION_DOT":3.2e-07,"MEAN_MOTION_DDOT":0.0},{"OBJECT_NAME":"ONEWEB-0326","OBJECT_ID":"2021-083K","EPOCH":"2026-04-12T03:23:45.810816","MEAN_MOTION":13.18684869,"ECCENTRICITY":0.0001672,"INCLINATION":87.9229,"RA_OF_ASC_NODE":348.5854,"ARG_OF_PERICENTER":94.9707,"MEAN_ANOMALY":265.1616,"EPHEMERIS_TYPE":0,"CLASSIFICATION_TYPE":"U","NORAD_CAT_ID":49195,"ELEMENT_SET_NO":999,"REV_AT_EPOCH":22129,"BSTAR":3.3268e-05,"MEAN_MOTION_DOT":2.6e-07,"MEAN_MOTION_DDOT":0.0},{"OBJECT_NAME":"ONEWEB-0327","OBJECT_ID":"2021-083L","EPOCH":"2026-04-12T03:23:22.043904","MEAN_MOTION":13.18687554,"ECCENTRICITY":0.0001679,"INCLINATION":87.922,"RA_OF_ASC_NODE":348.596,"ARG_OF_PERICENTER":94.8752,"MEAN_ANOMALY":265.2572,"EPHEMERIS_TYPE":0,"CLASSIFICATION_TYPE":"U","NORAD_CAT_ID":49196,"ELEMENT_SET_NO":999,"REV_AT_EPOCH":22131,"BSTAR":-3.6086000000000007e-05,"MEAN_MOTION_DOT":-1e-08,"MEAN_MOTION_DDOT":0.0},{"OBJECT_NAME":"ONEWEB-0328","OBJECT_ID":"2021-083M","EPOCH":"2026-04-11T22:43:33.552768","MEAN_MOTION":13.13468504,"ECCENTRICITY":0.000168,"INCLINATION":87.8998,"RA_OF_ASC_NODE":333.3964,"ARG_OF_PERICENTER":78.4501,"MEAN_ANOMALY":281.6817,"EPHEMERIS_TYPE":0,"CLASSIFICATION_TYPE":"U","NORAD_CAT_ID":49197,"ELEMENT_SET_NO":999,"REV_AT_EPOCH":22220,"BSTAR":0.00067316,"MEAN_MOTION_DOT":2.59e-06,"MEAN_MOTION_DDOT":0.0},{"OBJECT_NAME":"ONEWEB-0331","OBJECT_ID":"2021-083N","EPOCH":"2026-04-12T03:14:03.850656","MEAN_MOTION":13.18686665,"ECCENTRICITY":0.0001419,"INCLINATION":87.9227,"RA_OF_ASC_NODE":348.5811,"ARG_OF_PERICENTER":85.145,"MEAN_ANOMALY":274.9844,"EPHEMERIS_TYPE":0,"CLASSIFICATION_TYPE":"U","NORAD_CAT_ID":49198,"ELEMENT_SET_NO":999,"REV_AT_EPOCH":22130,"BSTAR":2.6845000000000005e-05,"MEAN_MOTION_DOT":2.3e-07,"MEAN_MOTION_DDOT":0.0},{"OBJECT_NAME":"ONEWEB-0333","OBJECT_ID":"2021-083P","EPOCH":"2026-04-12T02:15:38.232000","MEAN_MOTION":13.13469104,"ECCENTRICITY":0.0001734,"INCLINATION":87.8976,"RA_OF_ASC_NODE":333.3997,"ARG_OF_PERICENTER":83.6823,"MEAN_ANOMALY":276.4504,"EPHEMERIS_TYPE":0,"CLASSIFICATION_TYPE":"U","NORAD_CAT_ID":49199,"ELEMENT_SET_NO":999,"REV_AT_EPOCH":22223,"BSTAR":0.0011516,"MEAN_MOTION_DOT":4.33e-06,"MEAN_MOTION_DDOT":0.0},{"OBJECT_NAME":"ONEWEB-0334","OBJECT_ID":"2021-083Q","EPOCH":"2026-04-12T05:37:08.275584","MEAN_MOTION":13.20773085,"ECCENTRICITY":0.0002698,"INCLINATION":87.9131,"RA_OF_ASC_NODE":287.6165,"ARG_OF_PERICENTER":84.3369,"MEAN_ANOMALY":275.8072,"EPHEMERIS_TYPE":0,"CLASSIFICATION_TYPE":"U","NORAD_CAT_ID":49200,"ELEMENT_SET_NO":999,"REV_AT_EPOCH":22808,"BSTAR":0.00019049,"MEAN_MOTION_DOT":9e-07,"MEAN_MOTION_DDOT":0.0}]